IRIDIUM 171             
1 43929U 19002H   24255.75604744  .00000538  00000+0  18503-3 0  9999
2 43929  86.3916 262.6709 0002392  98.1654 261.9813 14.34216749296731
IRIDIUM 170             
1 43930U 19002J   24255.78282363  .00001552  00000+0  24230-3 0  9994
2 43930  86.6035 262.4634 0002563  93.0967 267.0544 14.72233551304598
IRIDIUM 181             
1 56726U 23068S   24255.68345448  .00001455  00000+0  42420-3 0  9994
2 56726  86.8673 320.4509 0003748 174.8006 185.3236 14.43559179 69615
IRIDIUM 177             
1 56727U 23068T   24255.55234141  .00001925  00000+0  25010-3 0  9996
2 56727  86.1933 274.3441 0002443  82.8386 277.3112 14.80193025 71152
IRIDIUM 174             
1 56728U 23068U   24255.61448582  .00001918  00000+0  24914-3 0  9994
2 56728  86.1959 274.4238 0002631  79.8113 280.3404 14.80184752 71165
IRIDIUM 178             
1 56729U 23068V   24255.60912067  .00004490  00000+0  58746-3 0  9996
2 56729  86.5777 296.0016 0002254 103.3035 256.8438 14.80219989 71165
